satname,norad_id,inclination_deg,eccentricity,mean_motion_rev_per_day,perigee_km,apogee_km,l1,l2
STARLINK-1267,45384,53.0538,0.0001334,15.06425186,546.2105363507708,548.0581987516325,1 45384U 20019AA  25329.50354123  .00027683  00000+0  18688-2 0  9998,2 45384  53.0538 254.9873 0001334 111.3449 248.7682 15.06425186314296
STARLINK-1272,45386,53.052,0.0008064,15.37912672,446.77466536283464,457.7907662805128,1 45386U 20019AC  25329.81092050  .00066673  00000+0  17557-2 0  9998,2 45386  53.0520 245.5902 0008064  94.8068 265.3855 15.37912672314457
STARLINK-1274,45387,53.0354,0.000453,15.31814372,467.29669261447543,473.5014663024658,1 45387U 20019AD  25329.14223583  .00055336  00000+0  17749-2 0  9999,2 45387  53.0354 236.9816 0004530  50.1158 310.0240 15.31814372314515
STARLINK-1280,45388,53.0532,0.0009324,15.44146744,427.53481985716644,440.23788100104593,1 45388U 20019AE  25329.53125513  .00106639  00000+0  22661-2 0  9999,2 45388  53.0532 265.3707 0009324  82.5861 277.6204 15.44146744314147
STARLINK-1283,45389,53.0521,0.0009212,15.33756505,458.31296709293474,470.92005616275856,1 45389U 20019AF  25329.19040437  .00059907  00000+0  18043-2 0  9997,2 45389  53.0521 247.7499 0009212  89.9028 270.3028 15.33756505314379
STARLINK-1284,45390,53.0542,0.0001374,15.06417208,546.2072827532838,548.11035404418,1 45390U 20019AG  25329.52188301  .00013428  00000+0  91823-3 0  9995,2 45390  53.0542 254.2495 0001374  88.6962 271.4184 15.06417208314309
STARLINK-1297,45395,53.0557,0.0001755,15.06396572,546.0066637686969,548.4374648002613,1 45395U 20019AM  25329.49239500  .00003560  00000+0  25778-3 0  9996,2 45395  53.0557 254.3809 0001755 100.4326 259.6861 15.06396572313488
STARLINK-1307,45397,53.0539,0.000145,15.06409177,546.1792604351695,548.1876033604203,1 45397U 20019AP  25329.15328141  .00001446  00000+0  11591-3 0  9990,2 45397  53.0539 255.8916 0001450 103.5373 256.5778 15.06409177314078
STARLINK-1255,45399,53.0472,0.0007021,15.33710514,459.9489123051126,469.5576988722214,1 45399U 20019AR  25329.45932041  .00056666  00000+0  17114-2 0  9995,2 45399  53.0472 237.5651 0007021  97.4498 262.7301 15.33710514314349
STARLINK-1260,45404,53.0518,0.000132,15.0639376,546.3165341714539,548.1448312396878,1 45404U 20019AW  25329.48592696  .00011242  00000+0  77256-3 0  9998,2 45404  53.0518 244.4044 0001320  85.8023 274.3117 15.06393760314154
STARLINK-1263,45405,53.0564,0.0002026,15.0639415,545.826408153398,548.6325666540934,1 45405U 20019AX  25329.47120564  .00001965  00000+0  15081-3 0  9998,2 45405  53.0564 244.4781 0002026  96.0670 264.0550 15.06394150314151
STARLINK-1265,45406,53.0539,0.0001729,15.06413063,545.9741361705528,548.3689078574653,1 45406U 20019AY  25329.47857345  .00007959  00000+0  55238-3 0  9990,2 45406  53.0539 244.4420 0001729  88.5203 271.5984 15.06413063314150
STARLINK-1278,45408,53.0536,0.0008627,15.37104136,448.7830940506128,460.5724326432919,1 45408U 20019BA  25329.91670139  .00042996  00000+0  11694-2 0  9992,2 45408  53.0536 265.1806 0008627  79.0079 132.7382 15.37104136  5910
STARLINK-1296,45412,53.054,0.0001261,15.06412786,546.299089455295,548.0456524786523,1 45412U 20019BE  25329.48225322  .00016382  00000+0  11158-2 0  9994,2 45412  53.0540 244.4220 0001261  96.0159 264.0974 15.06412786314159
STARLINK-1298,45413,53.0442,0.0008926,15.56830902,390.78829928257437,402.8829804392535,1 45413U 20019BF  25329.91670139  .00087796  00000+0  11938-2 0  9996,2 45413  53.0442 209.8608 0008926  53.2855  32.2973 15.56830902  5924
STARLINK-1309,45414,53.0538,0.0001269,15.06411659,546.2970028154532,548.0546472104415,1 45414U 20019BG  25329.49700543  .00004896  00000+0  34721-3 0  9999,2 45414  53.0538 244.3600 0001269  79.0084 281.1048 15.06411659314144
STARLINK-1316,45415,53.0554,0.0001668,15.06386856,546.096687839151,548.4069975570746,1 45415U 20019BH  25329.19107510  .00003078  00000+0  22549-3 0  9998,2 45415  53.0554 245.7298 0001668  77.3557 282.7618 15.06386856314139
STARLINK-1318,45416,53.0476,0.0005532,15.63873592,372.74358244188625,380.21689095256716,1 45416U 20019BJ  25329.83271600  .00073527  00000+0  76674-3 0  9996,2 45416  53.0476 200.4499 0005532 120.7661 239.3898 15.63873592314811
STARLINK-1286,45417,53.0543,0.0005064,15.38786118,446.2401331650899,453.1553641985538,1 45417U 20019BK  25329.55562843  .00038763  00000+0  10007-2 0  9998,2 45417  53.0543 267.0120 0005064  78.8045 281.3527 15.38786118314125
STARLINK-1308,45419,53.0547,0.0001523,15.06393715,546.1760871059632,548.2855541441268,1 45419U 20019BM  25329.55689896  .00002547  00000+0  18985-3 0  9993,2 45419  53.0547 274.0873 0001523  97.2809 262.8353 15.06393715313776
STARLINK-1329,45531,53.053,0.0001416,15.06407956,546.2065481484251,548.1677999545172,1 45531U 20025A   25329.39287582  .00003504  00000+0  25398-3 0  9993,2 45531  53.0530 214.8265 0001416  87.6069 272.5082 15.06407956309373
STARLINK-1338,45532,53.053,0.000145,15.06415464,546.1599947422492,548.1683320796392,1 45532U 20025B   25329.40393023  .00008044  00000+0  55807-3 0  9996,2 45532  53.0530 214.7751 0001450  84.9480 275.1675 15.06415464309378
STARLINK-1350,45535,53.0725,0.0002392,15.3309719,464.9409520929039,468.2154638483971,1 45535U 20025E   25329.78544315  .00012444  00000+0  39459-3 0  9996,2 45535  53.0725 160.0160 0002392 102.0483 258.0786 15.33097190310204
STARLINK-1362,45538,53.0531,0.000154,15.0642535,546.0673732156738,548.2003566420717,1 45538U 20025H   25329.83421249  .00012061  00000+0  82661-3 0  9993,2 45538  53.0531 212.5621 0001540  98.0999 262.0164 15.06425350309449
STARLINK-1368,45540,53.0534,0.0001846,15.06416889,545.881386280792,548.4382058579013,1 45540U 20025K   25329.83886758  .00005823  00000+0  40928-3 0  9994,2 45540  53.0534 212.8234 0001846  91.0878 269.0322 15.06416889309435
STARLINK-1371,45542,53.0538,0.0001873,15.06397697,545.9214972036425,548.5157354175117,1 45542U 20025M   25329.41129877  .00000944  00000+0  82271-4 0  9999,2 45542  53.0538 214.7398 0001873  90.8660 269.2543 15.06397697309374
STARLINK-1372,45543,53.0535,0.0001783,15.06397535,545.9843218236392,548.453903813469,1 45543U 20025N   25329.11642948  .00003258  00000+0  23757-3 0  9990,2 45543  53.0535 216.0668 0001783  93.7366 266.3827 15.06397535308421
STARLINK-1373,45544,53.0528,0.0001263,15.06395685,546.3501096302007,548.0994560165418,1 45544U 20025P   25329.00216789  .00002650  00000+0  19677-3 0  9990,2 45544  53.0528 216.5789 0001263  94.7783 265.3350 15.06395685309313
STARLINK-1294,45551,53.0454,0.0005245,15.64395047,371.43714665116204,378.52116549888524,1 45551U 20025W   25329.76759214  .00093307  00000+0  94948-3 0  9999,2 45551  53.0454 136.2388 0005245 138.5703 221.5710 15.64395047310519
STARLINK-1325,45554,53.0511,0.0005574,15.7199515,349.44340392185404,356.947493335585,1 45554U 20025Z   25329.91670139  .00583165  00000+0  40799-2 0  9997,2 45554  53.0511 127.7751 0005574 303.5684 336.7028 15.71995150  5940
STARLINK-1327,45555,53.0527,0.0001596,15.06416998,546.05418469097,548.2647393216421,1 45555U 20025AA  25329.83702152  .00006529  00000+0  45657-3 0  9993,2 45555  53.0527 192.8307 0001596  82.0679 278.0492 15.06416998309712
STARLINK-1356,45564,53.0531,0.0001585,15.06418679,546.0566514124466,548.2519687577433,1 45564U 20025AK  25329.84071334  .00004945  00000+0  35045-3 0  9995,2 45564  53.0531 192.8126 0001585  89.8831 270.2339 15.06418679309711
STARLINK-1357,45565,53.0588,0.0010412,15.36348695,449.800772229878,464.0340895767904,1 45565U 20025AL  25329.85986610  .00086543  00000+0  23860-2 0  9994,2 45565  53.0588 172.7952 0010412 102.5408 257.6759 15.36348695310002
STARLINK-1361,45567,53.0523,0.0001732,15.06416251,545.9622896678657,548.3612131553546,1 45567U 20025AN  25329.79279156  .00005337  00000+0  37675-3 0  9991,2 45567  53.0523 193.0264 0001732  85.8116 274.3071 15.06416251309719
STARLINK-1363,45568,53.051,0.0006901,15.45520128,425.15201561078266,434.5483995546874,1 45568U 20025AP  25329.02273085  .00103487  00000+0  21012-2 0  9995,2 45568  53.0510 187.6918 0006901 140.6657 219.4851 15.45520128309712
STARLINK-1366,45569,53.0513,0.0004855,15.4308682,433.69662862437417,440.314131875597,1 45569U 20025AQ  25329.78762637  .00048726  00000+0  10874-2 0  9993,2 45569  53.0513 183.8033 0004855 138.9958 221.1412 15.43086820309832
STARLINK-1376,45570,53.0538,0.0001505,15.06402883,546.1604583444396,548.2449856007534,1 45570U 20025AR  25329.78910323  .00000575  00000+0  57520-4 0  9993,2 45570  53.0538 193.0479 0001505  87.7725 272.3436 15.06402883309700
STARLINK-1320,45572,53.0563,0.0009239,15.45558665,423.4472452665932,436.02683491787593,1 45572U 20025AT  25329.76419213  .00057096  00000+0  11679-2 0  9998,2 45572  53.0563 129.7403 0009239 103.2983 256.9053 15.45558665310613
STARLINK-1321,45573,53.054,0.000145,15.06411643,546.1717036832742,548.1800444167484,1 45573U 20025AU  25329.84162595  .00001507  00000+0  12003-3 0  9995,2 45573  53.0540 182.8116 0001450  92.9674 267.1481 15.06411643309559
STARLINK-1328,45576,53.0468,0.0007275,15.78157522,330.7767818985576,340.54535809039953,1 45576U 20025AX  25329.91670139  .00282025  00000+0  15659-2 0  9999,2 45576  53.0468 146.6562 0007275 130.4934 129.8776 15.78157522  6010
STARLINK-1331,45578,53.0531,0.0001599,15.06406729,546.083574662458,548.2982945359436,1 45578U 20025AZ  25329.81950921  .00002201  00000+0  16658-3 0  9997,2 45578  53.0531 182.9097 0001599  92.9586 267.1586 15.06406729309868
STARLINK-1333,45580,53.053,0.000124,15.06407801,546.3289088435176,548.0463893564938,1 45580U 20025BB  25329.82595240 -.00003285  00000+0 -20172-3 0  9991,2 45580  53.0530 192.8792 0001240  83.1084 277.0046 15.06407801309717
STARLINK-1335,45581,53.0523,0.000126,15.0639002,546.3695475974473,548.1147431420804,1 45581U 20025BC  25329.83057220  .00003454  00000+0  25070-3 0  9992,2 45581  53.0523 182.8621 0001260  99.7404 260.3727 15.06390020309851
